GSAT0225 (GALILEO 29)   
1 59598U 24079A   26184.54964567 -.00000005  00000+0  00000+0 0  9999
2 59598  55.1282 100.6235 0001116 300.3188 247.3737  1.70474096 13599
GSAT0227 (GALILEO 30)   
1 59600U 24079C   26183.25409528 -.00000012  00000+0  00000+0 0  9999
2 59600  55.1233 100.6575 0002280  54.9212 305.1058  1.70474094 13620
GSAT0232 (GALILEO 32)   
1 61182U 24167A   26185.24867122  .00000074  00000+0  00000+0 0  9991
2 61182  55.1817 220.8459 0006281 229.1002 130.6534  1.70474324 11163
GSAT0226 (GALILEO 31)   
1 61183U 24167B   26185.87616155  .00000075  00000+0  00000+0 0  9990
2 61183  55.1802 220.8355 0003175 232.7288 243.4657  1.70474257 11151
BEIDOU-3 M25            
1 61186U 24168B   26185.58137271 -.00000059  00000+0  00000+0 0  9992
2 61186  54.4572 301.6389 0003270 294.5625  25.3198  1.86230207 12107
BEIDOU-3 M27            
1 61187U 24168C   26185.97724236 -.00000059  00000+0  00000+0 0  9999
2 61187  54.4521 301.6079 0001098  47.0603 313.2643  1.86230248  9599
NAVSTAR 83 (USA 440)    
1 62339U 24242A   26180.81572751 -.00000094  00000+0  00000+0 0  9992
2 62339  54.8437 333.6698 0017626   4.4449   3.3802  2.00572141 11517
QZS-6 (MICHIBIKI-6)     
1 62876U 25023A   26186.60841605 -.00000219  00000+0  00000+0 0  9995
2 62876   0.0372 288.7846 0001971 192.4013 111.9733  1.00270433  5138
COSMOS 2584 [GLONASS-K2]
1 63130U 25042A   26185.50280755 -.00000010  00000+0  00000+0 0  9990
2 63130  65.0947  72.2135 0006059 222.1818 137.8396  2.13103855 10411
NAVSTAR 84 (USA 545)    
1 64202U 25116A   26186.28378067 -.00000058  00000+0  00000+0 0  9995
2 64202  55.2485  30.4032 0008335 339.8111 199.4440  2.00574675  8232
COSMOS 2596 [GLONASS-K1]
1 65590U 25206B   26185.11455839 -.00000045  00000+0  00000+0 0  9996
2 65590  64.6242 314.3970 0011142 309.2417 229.0730  2.13100941  6272
GSAT0233 (GALILEO 33)   
1 67160U 25302A   26186.40533022  .00000000  00000+0  00000+0 0  9992
2 67160  54.3445 101.6128 0000883 184.8795 352.5837  1.70474055  3433
GSAT0234 (GALILEO 34)   
1 67162U 25302C   26184.94180101 -.00000003  00000+0  00000+0 0  9991
2 67162  54.3462 101.6534 0002335 315.3055 224.0559  1.70474143  3464
NAVSTAR 85 (USA 581)    
1 67588U 26017A   26184.15130388 -.00000011  00000+0  00000+0 0  9991
2 67588  55.0981  88.1147 0021554 259.0421 100.7528  2.00570852431935
NAVSTAR 86 (USA 585)    
1 68791U 26087A   26185.85968388  .00000081  00000+0  00000+0 0  9998
2 68791  54.9625 207.0890 0020607 106.7384 252.2730  2.00571858  1181
